{"type": "FeatureCollection", "features": [ {"type": "Feature", "properties": {"norad_id": 33619, "name": "FENGYUN 1C DEB", "group": "fengyun-1c-debris", "lat": -42.322489174464984, "lon": -128.12323599501295, "alt_km": 876.4678290990114, "timestamp": "2025-12-16T15:45:51.332750+00:00", "meta": {"OBJECT_NAME": "FENGYUN 1C DEB", "OBJECT_ID": "1999-025DDC", "EPOCH": "2025-12-14T22:03:37.629792", "MEAN_MOTION": 14.1751978, "ECCENTRICITY": 0.00506525, "INCLINATION": 98.862, "RA_OF_ASC_NODE": 58.3121, "ARG_OF_PERICENTER": 39.8653, "MEAN_ANOMALY": 320.6225, "EPHEMERIS_TYPE": 0, "CLASSIFICATION_TYPE": "U", "NORAD_CAT_ID": 33619, "ELEMENT_SET_NO": 999, "REV_AT_EPOCH": 63655, "BSTAR": 0.0011254205, "MEAN_MOTION_DOT": 2.269e-05, "MEAN_MOTION_DDOT": 0}, "tle": {"line1": "1 33619U 99025DDC 25348.91918553  .00002269  00000+0  11254-2 0  9993", "line2": "2 33619  98.8620  58.3121 0050652  39.8653 320.6225 14.17519780636557"}}, "geometry": {"type": "Point", "coordinates": [-128.12323599501295, -42.322489174464984]}}, {"type": "Feature", "properties": {"norad_id": 33621, "name": "FENGYUN 1C DEB", "group": "fengyun-1c-debris", "lat": 23.845284408906387, "lon": 24.727085916945434, "alt_km": 946.6350647044765, "timestamp": "2025-12-16T15:45:51.332759+00:00", "meta": {"OBJECT_NAME": "FENGYUN 1C DEB", "OBJECT_ID": "1999-025DDE", "EPOCH": "2025-12-10T20:17:14.702784", "MEAN_MOTION": 14.19482835, "ECCENTRICITY": 0.02846988, "INCLINATION": 98.1391, "RA_OF_ASC_NODE": 195.7496, "ARG_OF_PERICENTER": 300.0128, "MEAN_ANOMALY": 57.3079, "EPHEMERIS_TYPE": 0, "CLASSIFICATION_TYPE": "U", "NORAD_CAT_ID": 33621, "ELEMENT_SET_NO": 999, "REV_AT_EPOCH": 64217, "BSTAR": 0.00099524636, "MEAN_MOTION_DOT": 3.099e-05, "MEAN_MOTION_DDOT": 0}, "tle": {"line1": "1 33621U 99025DDE 25344.84530906  .00003099  00000+0  99525-3 0  9996", "line2": "2 33621  98.1391 195.7496 0284698 300.0128  57.3079 14.19482835642176"}}, "geometry": {"type": "Point", "coordinates": [24.727085916945434, 23.845284408906387]}}, {"type": "Feature", "properties": {"norad_id": 33625, "name": "FENGYUN 1C DEB", "group": "fengyun-1c-debris", "lat": -80.69300568338085, "lon": -146.3036764089211, "alt_km": 823.5521773337823, "timestamp": "2025-12-16T15:45:51.332782+00:00", "meta": {"OBJECT_NAME": "FENGYUN 1C DEB", "OBJECT_ID": "1999-025DDJ", "EPOCH": "2025-12-13T12:36:07.794144", "MEAN_MOTION": 14.61020731, "ECCENTRICITY": 0.02258414, "INCLINATION": 98.6212, "RA_OF_ASC_NODE": 98.2156, "ARG_OF_PERICENTER": 132.8107, "MEAN_ANOMALY": 229.2324, "EPHEMERIS_TYPE": 0, "CLASSIFICATION_TYPE": "U", "NORAD_CAT_ID": 33625, "ELEMENT_SET_NO": 999, "REV_AT_EPOCH": 61402, "BSTAR": 0.0021929807, "MEAN_MOTION_DOT": 0.00015444, "MEAN_MOTION_DDOT": 0}, "tle": {"line1": "1 33625U 99025DDJ 25347.52509021  .00015444  00000+0  21930-2 0  9993", "line2": "2 33625  98.6212  98.2156 0225841 132.8107 229.2324 14.61020731614026"}}, "geometry": {"type": "Point", "coordinates": [-146.3036764089211, -80.69300568338085]}}, {"type": "Feature", "properties": {"norad_id": 33630, "name": "FENGYUN 1C DEB", "group": "fengyun-1c-debris", "lat": 10.028483935114586, "lon": -81.72916555905825, "alt_km": 871.4394515518106, "timestamp": "2025-12-16T15:45:51.332794+00:00", "meta": {"OBJECT_NAME": "FENGYUN 1C DEB", "OBJECT_ID": "1999-025DDP", "EPOCH": "2025-12-09T13:35:56.277312", "MEAN_MOTION": 14.17713216, "ECCENTRICITY": 0.0135528, "INCLINATION": 98.6166, "RA_OF_ASC_NODE": 89.8546, "ARG_OF_PERICENTER": 77.2482, "MEAN_ANOMALY": 284.3802, "EPHEMERIS_TYPE": 0, "CLASSIFICATION_TYPE": "U", "NORAD_CAT_ID": 33630, "ELEMENT_SET_NO": 999, "REV_AT_EPOCH": 64366, "BSTAR": 0.00061826, "MEAN_MOTION_DOT": 1.337e-05, "MEAN_MOTION_DDOT": 0}, "tle": {"line1": "1 33630U 99025DDP 25343.56662358  .00001337  00000+0  61826-3 0  9997", "line2": "2 33630  98.6166  89.8546 0135528  77.2482 284.3802 14.17713216643662"}}, "geometry": {"type": "Point", "coordinates": [-81.72916555905825, 10.028483935114586]}}, {"type": "Feature", "properties": {"norad_id": 33633, "name": "FENGYUN 1C DEB", "group": "fengyun-1c-debris", "lat": -52.80646738937174, "lon": -107.11877942821359, "alt_km": 838.03484766575, "timestamp": "2025-12-16T15:45:51.332805+00:00", "meta": {"OBJECT_NAME": "FENGYUN 1C DEB", "OBJECT_ID": "1999-025DDS", "EPOCH": "2025-12-14T05:17:20.235840", "MEAN_MOTION": 14.19354186, "ECCENTRICITY": 0.00834952, "INCLINATION": 99.0564, "RA_OF_ASC_NODE": 82.5239, "ARG_OF_PERICENTER": 146.6641, "MEAN_ANOMALY": 243.3221, "EPHEMERIS_TYPE": 0, "CLASSIFICATION_TYPE": "U", "NORAD_CAT_ID": 33633, "ELEMENT_SET_NO": 999, "REV_AT_EPOCH": 90732, "BSTAR": 0.0025593474, "MEAN_MOTION_DOT": 5.525e-05, "MEAN_MOTION_DDOT": 0}, "tle": {"line1": "1 33633U 99025DDS 25348.22037310  .00005525  00000+0  25593-2 0  9995", "line2": "2 33633  99.0564  82.5239 0083495 146.6641 243.3221 14.19354186907329"}}, "geometry": {"type": "Point", "coordinates": [-107.11877942821359, -52.80646738937174]}}, {"type": "Feature", "properties": {"norad_id": 33637, "name": "FENGYUN 1C DEB", "group": "fengyun-1c-debris", "lat": -1.9823211814621422, "lon": 35.880331396451226, "alt_km": 818.7905695455584, "timestamp": "2025-12-16T15:45:51.332815+00:00", "meta": {"OBJECT_NAME": "FENGYUN 1C DEB", "OBJECT_ID": "1999-025DDW", "EPOCH": "2025-12-13T20:55:05.593728", "MEAN_MOTION": 14.36759768, "ECCENTRICITY": 0.00830796, "INCLINATION": 98.4929, "RA_OF_ASC_NODE": 32.8364, "ARG_OF_PERICENTER": 148.1698, "MEAN_ANOMALY": 212.4548, "EPHEMERIS_TYPE": 0, "CLASSIFICATION_TYPE": "U", "NORAD_CAT_ID": 33637, "ELEMENT_SET_NO": 999, "REV_AT_EPOCH": 64854, "BSTAR": 0.0014619922, "MEAN_MOTION_DOT": 4.446e-05, "MEAN_MOTION_DDOT": 0}, "tle": {"line1": "1 33637U 99025DDW 25347.87159252  .00004446  00000+0  14620-2 0  9999", "line2": "2 33637  98.4929  32.8364 0083079 148.1698 212.4548 14.36759768648544"}}, "geometry": {"type": "Point", "coordinates": [35.880331396451226, -1.9823211814621422]}}, {"type": "Feature", "properties": {"norad_id": 33638, "name": "FENGYUN 1C DEB", "group": "fengyun-1c-debris", "lat": -77.25774073459611, "lon": 19.6927368230936, "alt_km": 814.2156443547201, "timestamp": "2025-12-16T15:45:51.332825+00:00", "meta": {"OBJECT_NAME": "FENGYUN 1C DEB", "OBJECT_ID": "1999-025DDX", "EPOCH": "2025-12-14T22:08:49.572672", "MEAN_MOTION": 13.69317999, "ECCENTRICITY": 0.02645187, "INCLINATION": 98.4649, "RA_OF_ASC_NODE": 239.354, "ARG_OF_PERICENTER": 267.241, "MEAN_ANOMALY": 89.8439, "EPHEMERIS_TYPE": 0, "CLASSIFICATION_TYPE": "U", "NORAD_CAT_ID": 33638, "ELEMENT_SET_NO": 999, "REV_AT_EPOCH": 60945, "BSTAR": 0.0010502049, "MEAN_MOTION_DOT": 1.127e-05, "MEAN_MOTION_DDOT": 0}, "tle": {"line1": "1 33638U 99025DDX 25348.92279598  .00001127  00000+0  10502-2 0  9991", "line2": "2 33638  98.4649 239.3540 0264518 267.2410  89.8439 13.69317999609451"}}, "geometry": {"type": "Point", "coordinates": [19.6927368230936, -77.25774073459611]}}, {"type": "Feature", "properties": {"norad_id": 33639, "name": "FENGYUN 1C DEB", "group": "fengyun-1c-debris", "lat": 55.2874597341388, "lon": -85.50609483530185, "alt_km": 783.3034764392341, "timestamp": "2025-12-16T15:45:51.332835+00:00", "meta": {"OBJECT_NAME": "FENGYUN 1C DEB", "OBJECT_ID": "1999-025DDY", "EPOCH": "2025-12-14T11:30:34.684704", "MEAN_MOTION": 14.40475035, "ECCENTRICITY": 0.00499213, "INCLINATION": 98.7123, "RA_OF_ASC_NODE": 79.4896, "ARG_OF_PERICENTER": 283.4225, "MEAN_ANOMALY": 76.1402, "EPHEMERIS_TYPE": 0, "CLASSIFICATION_TYPE": "U", "NORAD_CAT_ID": 33639, "ELEMENT_SET_NO": 999, "REV_AT_EPOCH": 60607, "BSTAR": 0.0023798225, "MEAN_MOTION_DOT": 7.641e-05, "MEAN_MOTION_DDOT": 0}, "tle": {"line1": "1 33639U 99025DDY 25348.47956811  .00007641  00000+0  23798-2 0  9990", "line2": "2 33639  98.7123  79.4896 0049921 283.4225  76.1402 14.40475035606072"}}, "geometry": {"type": "Point", "coordinates": [-85.50609483530185, 55.2874597341388]}}, {"type": "Feature", "properties": {"norad_id": 33640, "name": "FENGYUN 1C DEB", "group": "fengyun-1c-debris", "lat": 26.808303631992114, "lon": -70.93659163386106, "alt_km": 770.4631817999871, "timestamp": "2025-12-16T15:45:51.332845+00:00", "meta": {"OBJECT_NAME": "FENGYUN 1C DEB", "OBJECT_ID": "1999-025DDZ", "EPOCH": "2025-12-11T19:22:45.041664", "MEAN_MOTION": 14.45889666, "ECCENTRICITY": 0.00906976, "INCLINATION": 98.8406, "RA_OF_ASC_NODE": 288.5217, "ARG_OF_PERICENTER": 162.4466, "MEAN_ANOMALY": 197.9894, "EPHEMERIS_TYPE": 0, "CLASSIFICATION_TYPE": "U", "NORAD_CAT_ID": 33640, "ELEMENT_SET_NO": 999, "REV_AT_EPOCH": 92329, "BSTAR": 0.00074722735, "MEAN_MOTION_DOT": 2.744e-05, "MEAN_MOTION_DDOT": 0}, "tle": {"line1": "1 33640U 99025DDZ 25345.80746576  .00002744  00000+0  74723-3 0  9995", "line2": "2 33640  98.8406 288.5217 0090697 162.4466 197.9894 14.45889666923295"}}, "geometry": {"type": "Point", "coordinates": [-70.93659163386106, 26.808303631992114]}}, {"type": "Feature", "properties": {"norad_id": 33648, "name": "FENGYUN 1C DEB", "group": "fengyun-1c-debris", "lat": -14.128863891512301, "lon": 167.02137563163154, "alt_km": 814.9974698344831, "timestamp": "2025-12-16T15:45:51.332855+00:00", "meta": {"OBJECT_NAME": "FENGYUN 1C DEB", "OBJECT_ID": "1999-025DEH", "EPOCH": "2025-12-15T18:26:20.299200", "MEAN_MOTION": 14.11776721, "ECCENTRICITY": 0.00690473, "INCLINATION": 98.7193, "RA_OF_ASC_NODE": 348.3716, "ARG_OF_PERICENTER": 165.5899, "MEAN_ANOMALY": 194.7263, "EPHEMERIS_TYPE": 0, "CLASSIFICATION_TYPE": "U", "NORAD_CAT_ID": 33648, "ELEMENT_SET_NO": 999, "REV_AT_EPOCH": 64419, "BSTAR": 0.00011817549, "MEAN_MOTION_DOT": 1.78e-06, "MEAN_MOTION_DDOT": 0}, "tle": {"line1": "1 33648U 99025DEH 25349.76829050  .00000178  00000+0  11818-3 0  9996", "line2": "2 33648  98.7193 348.3716 0069047 165.5899 194.7263 14.11776721644197"}}, "geometry": {"type": "Point", "coordinates": [167.02137563163154, -14.128863891512301]}}]}